IRIDIUM 171             
1 43929U 19002H   23349.56582026  .00000028  00000+0  30683-5 0  9998
2 43929  86.3984  16.0225 0002118  92.1596 267.9842 14.34216913257867
IRIDIUM 170             
1 43930U 19002J   23350.47535246  .00001013  00000+0  15679-3 0  9995
2 43930  86.6102  15.4902 0002536  90.3706 269.7802 14.72247402264825
IRIDIUM 167             
1 43931U 19002K   23350.46646732  .00000281  00000+0  93424-4 0  9999
2 43931  86.3974  15.4552 0002087  88.8820 271.2615 14.34218615257993
IRIDIUM 181             
1 56726U 23068S   23350.27955270  .00000444  00000+0  12533-3 0  9993
2 56726  86.8634  60.3365 0002491  74.1645 285.9831 14.43575724 30606
IRIDIUM 177             
1 56727U 23068T   23350.21350929  .00001428  00000+0  18447-3 0  9991
2 56727  86.1980  42.6957 0002286  95.2192 264.9290 14.80237930 31160
IRIDIUM 174             
1 56728U 23068U   23350.20815599  .00001409  00000+0  18199-3 0  9993
2 56728  86.1988  42.7872 0002080  94.9124 265.2335 14.80217504 31168
IRIDIUM 178             
1 56729U 23068V   23350.20277550  .00001428  00000+0  18457-3 0  9991
2 56729  86.5787  51.5320 0002283  97.6556 262.4925 14.80227225 31165
IRIDIUM 179             
1 56730U 23068W   23349.72411998  .00001251  00000+0  16121-3 0  9994
2 56730  86.6796  53.5470 0002226  99.3528 260.7946 14.80222119 31094
